NORAD_CAT_ID,OBJECT_NAME,OBJECT_TYPE,EPOCH,MEAN_MOTION,ECCENTRICITY,INCLINATION,RA_OF_ASC_NODE,ARG_OF_PERICENTER,MEAN_ANOMALY,BSTAR,MEAN_MOTION_DOT,MEAN_MOTION_DDOT,TLE_LINE0,TLE_LINE1,TLE_LINE2,SEMIMAJOR_AXIS,PERIOD,APOGEE,PERIGEE,DECAYED
51108.0,STARLINK-3362,PAYLOAD,2024-06-27 07:20:01,15.08843076,0.0001238,53.2157,194.1352,87.0223,273.0911,8.5827e-05,1.078e-05,0.0,0 STARLINK-3362,1 51108U 22005E   24179.30557425  .00001078  00000-0  85827-4 0  9998,2 51108  53.2157 194.1352 0001238  87.0223 273.0911 15.08843076136332,6917.871,95.437,540.592,538.88,0.0
51108.0,STARLINK-3362,PAYLOAD,2024-06-27 18:27:43,15.08843223,0.0001235,53.2155,192.0539,86.4454,273.6679,7.292e-05,8.73e-06,0.0,0 STARLINK-3362,1 51108U 22005E   24179.76925408  .00000873  00000-0  72920-4 0  9990,2 51108  53.2155 192.0539 0001235  86.4454 273.6679 15.08843223136409,6917.871,95.437,540.59,538.881,0.0
51108.0,STARLINK-3362,PAYLOAD,2024-06-28 04:00:02,15.08841799,0.0001282,53.2155,190.2701,86.4027,273.7112,5.3053e-05,5.57e-06,0.0,0 STARLINK-3362,1 51108U 22005E   24180.16669564  .00000557  00000-0  53053-4 0  9999,2 51108  53.2155 190.2701 0001282  86.4027 273.7112 15.08841799136463,6917.875,95.437,540.627,538.853,0.0
51108.0,STARLINK-3362,PAYLOAD,2024-06-28 07:10:48,15.08843599,0.0001286,53.2157,189.6755,86.9466,273.1673,6.7475e-05,7.86e-06,0.0,0 STARLINK-3362,1 51108U 22005E   24180.29917385  .00000786  00000-0  67475-4 0  9997,2 51108  53.2157 189.6755 0001286  86.9466 273.1673 15.08843599136480,6917.869,95.437,540.624,538.845,0.0
51108.0,STARLINK-3362,PAYLOAD,2024-06-29 03:50:49,15.08839144,0.0001357,53.2154,185.808,93.1561,266.9587,2.7794e-05,1.54e-06,0.0,0 STARLINK-3362,1 51108U 22005E   24181.16029727  .00000154  00000-0  27794-4 0  9997,2 51108  53.2154 185.8080 0001357  93.1561 266.9587 15.08839144136611,6917.883,95.438,540.687,538.809,0.0
51108.0,STARLINK-3362,PAYLOAD,2024-06-29 10:12:22,15.08838558,0.0001349,53.2159,184.6183,94.4469,265.6677,1.6594e-05,-2.4e-07,0.0,0 STARLINK-3362,1 51108U 22005E   24181.42525758 -.00000024  00000-0  16594-4 0  9994,2 51108  53.2159 184.6183 0001349  94.4469 265.6677 15.08838558136657,6917.885,95.438,540.683,538.817,0.0
51108.0,STARLINK-3362,PAYLOAD,2024-06-30 05:17:00,15.08837106,0.0001339,53.2159,181.0498,94.0065,266.108,1.04e-05,-1.22e-06,0.0,0 STARLINK-3362,1 51108U 22005E   24182.22013960 -.00000122  00000-0  10400-4 0  9999,2 51108  53.2159 181.0498 0001339  94.0065 266.1080 15.08837106136779,6917.889,95.438,540.681,538.828,0.0
51108.0,STARLINK-3362,PAYLOAD,2024-06-30 10:03:09,15.08837163,0.0001338,53.2159,180.1582,93.1869,266.9277,2.1954e-05,6.1e-07,0.0,0 STARLINK-3362,1 51108U 22005E   24182.41885949  .00000061  00000-0  21954-4 0  9991,2 51108  53.2159 180.1582 0001338  93.1869 266.9277 15.08837163136807,6917.889,95.438,540.68,538.828,0.0
51108.0,STARLINK-3362,PAYLOAD,2024-07-01 05:07:47,15.0883682,0.0001281,53.2155,176.5896,93.0143,267.0996,5.8122e-05,6.37e-06,0.0,0 STARLINK-3362,1 51108U 22005E   24183.21374043  .00000637  00000-0  58122-4 0  9994,2 51108  53.2155 176.5896 0001281  93.0143 267.0996 15.08836820136923,6917.89,95.438,540.641,538.869,0.0
51108.0,STARLINK-3362,PAYLOAD,2024-07-01 06:43:10,15.08838585,0.0001282,53.2156,176.2925,93.0794,267.0345,7.0956e-05,8.42e-06,0.0,0 STARLINK-3362,1 51108U 22005E   24183.27997903  .00000842  00000-0  70956-4 0  9993,2 51108  53.2156 176.2925 0001282  93.0794 267.0345 15.08838585136936,6917.885,95.438,540.637,538.863,0.0
51108.0,STARLINK-3362,PAYLOAD,2024-07-02 04:58:34,15.08841882,0.0001369,53.2159,172.1308,98.2031,261.9117,9.4672e-05,1.219e-05,0.0,0 STARLINK-3362,1 51108U 22005E   24184.20733835  .00001219  00000-0  94672-4 0  9999,2 51108  53.2159 172.1308 0001369  98.2031 261.9117 15.08841882137076,6917.875,95.437,540.687,538.793,0.0
51108.0,STARLINK-3362,PAYLOAD,2024-07-02 06:33:56,15.08843616,0.0001283,53.2162,171.8368,97.5051,262.6087,0.00012612,1.72e-05,0.0,0 STARLINK-3362,1 51108U 22005E   24184.27357638  .00001720  00000-0  12612-3 0  9999,2 51108  53.2162 171.8368 0001283  97.5051 262.6087 15.08843616137083,6917.869,95.437,540.622,538.847,0.0
51108.0,STARLINK-3362,PAYLOAD,2024-07-02 16:06:15,15.08841262,0.0001175,53.2148,170.0502,96.7503,263.3623,0.00013364,1.84e-05,0.0,0 STARLINK-3362,1 51108U 22005E   24184.67101654  .00001840  00000-0  13364-3 0  9996,2 51108  53.2148 170.0502 0001175  96.7503 263.3623 15.08841262137147,6917.877,95.437,540.554,538.929,0.0
51108.0,STARLINK-3362,PAYLOAD,2024-07-03 04:49:21,15.08837054,0.0001486,53.2158,167.6706,93.2683,266.8479,7.0281e-06,-1.76e-06,0.0,0 STARLINK-3362,1 51108U 22005E   24185.20094370 -.00000176  00000-0  70281-5 0  9997,2 51108  53.2158 167.6706 0001486  93.2683 266.8479 15.08837054137222,6917.889,95.438,540.782,538.726,0.0
51108.0,STARLINK-3362,PAYLOAD,2024-07-03 08:00:07,15.08837634,0.0001355,53.2152,167.0752,90.0048,270.1099,1.1589e-05,-1.03e-06,0.0,0 STARLINK-3362,1 51108U 22005E   24185.33342289 -.00000103  00000-0  11589-4 0  9991,2 51108  53.2152 167.0752 0001355  90.0048 270.1099 15.08837634137248,6917.888,95.438,540.69,538.815,0.0
51108.0,STARLINK-3362,PAYLOAD,2024-07-04 04:40:08,15.08842186,0.0001329,53.2158,163.2107,95.4205,264.6938,-4.444e-05,-9.95e-06,0.0,0 STARLINK-3362,1 51108U 22005E   24186.19454237 -.00000995  00000-0 -44440-4 0  9995,2 51108  53.2158 163.2107 0001329  95.4205 264.6938 15.08842186137373,6917.874,95.437,540.658,538.819,0.0
51108.0,STARLINK-3362,PAYLOAD,2024-07-04 07:50:54,15.0884721,0.0001247,53.2157,162.6143,86.3404,273.7731,-2.8693e-05,-7.45e-06,0.0,0 STARLINK-3362,1 51108U 22005E   24186.32701838 -.00000745  00000-0 -28693-4 0  9997,2 51108  53.2157 162.6143 0001247  86.3404 273.7731 15.08847210137391,6917.858,95.437,540.586,538.861,0.0
51108.0,STARLINK-3362,PAYLOAD,2024-07-04 15:47:50,15.08844515,0.0001226,53.2158,161.1262,85.9877,274.1255,-0.00010158,-1.904e-05,0.0,0 STARLINK-3362,1 51108U 22005E   24186.65822090 -.00001904  00000-0 -10158-3 0  9991,2 51108  53.2158 161.1262 0001226  85.9877 274.1255 15.08844515137441,6917.867,95.437,540.58,538.883,0.0
51108.0,STARLINK-3362,PAYLOAD,2024-07-05 04:30:55,15.08838516,0.0001286,53.2159,158.7461,98.1734,261.9404,4.0764e-05,3.61e-06,0.0,0 STARLINK-3362,1 51108U 22005E   24187.18814100  .00000361  00000-0  40764-4 0  9994,2 51108  53.2159 158.7461 0001286  98.1734 261.9404 15.08838516137522,6917.885,95.438,540.64,538.86,0.0
51108.0,STARLINK-3362,PAYLOAD,2024-07-05 15:38:37,15.08840594,0.0001295,53.2161,156.6652,96.7479,263.3661,5.9725e-05,6.63e-06,0.0,0 STARLINK-3362,1 51108U 22005E   24187.65181927  .00000663  00000-0  59725-4 0  9992,2 51108  53.2161 156.6652 0001295  96.7479 263.3661 15.08840594137591,6917.879,95.438,540.639,538.848,0.0
51108.0,STARLINK-3362,PAYLOAD,2024-07-06 04:21:42,15.08841501,0.0001415,53.2174,154.2851,104.1155,255.9995,8.2465e-06,-1.57e-06,0.0,0 STARLINK-3362,1 51108U 22005E   24188.18174118 -.00000157  00000-0  82465-5 0  9992,2 51108  53.2174 154.2851 0001415 104.1155 255.9995 15.08841501137674,6917.876,95.437,540.72,538.762,0.0
51108.0,STARLINK-3362,PAYLOAD,2024-07-06 07:32:28,15.08840088,0.0001391,53.2169,153.6908,102.8398,257.2749,3.1193e-05,2.09e-06,0.0,0 STARLINK-3362,1 51108U 22005E   24188.31422114  .00000209  00000-0  31193-4 0  9997,2 51108  53.2169 153.6908 0001391 102.8398 257.2749 15.08840088137694,6917.88,95.438,540.707,538.783,0.0
51108.0,STARLINK-3362,PAYLOAD,2024-07-07 04:12:29,15.08836405,0.0001357,53.2169,149.8282,92.5261,267.5887,5.7471e-06,-1.96e-06,0.0,0 STARLINK-3362,1 51108U 22005E   24189.17534691 -.00000196  00000-0  57471-5 0  9990,2 51108  53.2169 149.8282 0001357  92.5261 267.5887 15.08836405137822,6917.891,95.438,540.695,538.818,0.0
51108.0,STARLINK-3362,PAYLOAD,2024-07-07 07:23:16,15.08838155,0.0001258,53.2161,149.2335,89.2265,270.8871,8.4063e-06,-1.54e-06,0.0,0 STARLINK-3362,1 51108U 22005E   24189.30782583 -.00000154  00000-0  84063-5 0  9991,2 51108  53.2161 149.2335 0001258  89.2265 270.8871 15.08838155137840,6917.886,95.438,540.621,538.881,0.0
51108.0,STARLINK-3362,PAYLOAD,2024-07-08 04:03:16,15.08843356,0.000132,53.216,145.3671,93.1697,266.9446,7.4734e-05,9.02e-06,0.0,0 STARLINK-3362,1 51108U 22005E   24190.16894152  .00000902  00000-0  74734-4 0  9996,2 51108  53.2160 145.3671 0001320  93.1697 266.9446 15.08843356137979,6917.87,95.437,540.648,538.822,0.0
51108.0,STARLINK-3362,PAYLOAD,2024-07-08 13:35:35,15.08841618,0.0001248,53.2158,143.5834,90.4419,269.6716,4.1754e-05,3.77e-06,0.0,0 STARLINK-3362,1 51108U 22005E   24190.56638301  .00000377  00000-0  41754-4 0  9994,2 51108  53.2158 143.5834 0001248  90.4419 269.6716 15.08841618136921,6917.875,95.437,540.604,538.877,0.0
51108.0,STARLINK-3362,PAYLOAD,2024-07-08 19:57:08,15.08834836,0.0001317,53.2164,142.3979,96.42,263.6942,7.3059e-05,8.75e-06,0.0,0 STARLINK-3362,1 51108U 22005E   24190.83134718  .00000875  00000-0  73059-4 0  9993,2 51108  53.2164 142.3979 0001317  96.4200 263.6942 15.08834836138073,6917.896,95.438,540.672,538.85,0.0
51108.0,STARLINK-3362,PAYLOAD,2024-07-09 03:54:04,15.08830504,0.0001376,53.2165,140.9103,99.3597,260.7551,8.3804e-06,-1.55e-06,0.0,0 STARLINK-3362,1 51108U 22005E   24191.16255376 -.00000155  00000-0  83804-5 0  9996,2 51108  53.2165 140.9103 0001376  99.3597 260.7551 15.08830504138121,6917.909,95.438,540.726,538.823,0.0
51108.0,STARLINK-3362,PAYLOAD,2024-07-09 05:29:27,15.08828044,0.000137,53.2168,140.6128,100.7378,259.3769,4.8418e-05,4.83e-06,0.0,0 STARLINK-3362,1 51108U 22005E   24191.22879414  .00000483  00000-0  48418-4 0  9992,2 51108  53.2168 140.6128 0001370 100.7378 259.3769 15.08828044138138,6917.917,95.438,540.73,538.834,0.0
51108.0,STARLINK-3362,PAYLOAD,2024-07-09 13:26:23,15.08834216,0.0001294,53.2164,139.1248,92.0646,268.0495,-3.546e-05,-8.52e-06,0.0,0 STARLINK-3362,1 51108U 22005E   24191.55999402 -.00000852  00000-0 -35460-4 0  9993,2 51108  53.2164 139.1248 0001294  92.0646 268.0495 15.08834216137079,6917.898,95.438,540.658,538.868,0.0
